SENTINEL-6              
1 46984U 20086A   24143.77887860 -.00000059  00000+0  87146-5 0  9997
2 46984  66.0418 264.0411 0007811 270.5104  89.5016 12.80931134163575
